     2.10           N: GPS NAV DATA                         RINEX VERSION / TYPE
JPS2RIN v.2.0.36    JAVAD GNSS          20160605 065308 UTC PGM / RUN BY / DATE
    16                                                      LEAP SECONDS
    2.3283D-08  0.0000D+00 -1.1921D-07  0.0000D+00          ION ALPHA
    1.2902D+05 -1.6384D+04 -2.6214D+05  6.5536D+04          ION BETA
                                                            END OF HEADER
25 14 10 17 10  0  0.0 1.807743683457D-05-1.364242052659D-12 0.000000000000D+00
    6.200000000000D+01 3.128125000000D+01 4.247676932794D-09-2.940973697508D+00
    1.568347215652D-06 3.734701895155D-03 6.109476089478D-06 5.153780189514D+03
    4.680000000000D+05-2.607703208923D-08-2.155033546369D-02-8.568167686462D-08
    9.774636832401D-01 2.693750000000D+02 7.205215721127D-01-7.954259898281D-09
    2.000083311498D-10 1.000000000000D+00 1.814000000000D+03 0.000000000000D+00
    2.000000000000D+00 0.000000000000D+00 5.587935447693D-09 6.200000000000D+01
    4.608300000000D+05 4.000000000000D+00
27 14 10 17 10  0  0.0 2.284720540047D-05 2.955857780762D-12 0.000000000000D+00
    4.400000000000D+01-5.403125000000D+01 4.718410826464D-09 8.762833286037D-01
   -2.689659595490D-06 1.534213428386D-03 5.394220352173D-06 5.153680545807D+03
    4.680000000000D+05 4.656612873077D-08 1.024197201079D+00 1.303851604462D-08
    9.647094543296D-01 2.742187500000D+02 3.254191632429D-01-8.300345742717D-09
   -1.757216052245D-10 1.000000000000D+00 1.814000000000D+03 0.000000000000D+00
    2.000000000000D+00 0.000000000000D+00 1.862645149231D-09 4.400000000000D+01
    4.616400000000D+05 4.000000000000D+00
29 14 10 17 10  0  0.0 5.672359839082D-04 2.387423592154D-12 0.000000000000D+00
    9.400000000000D+01-4.884375000000D+01 4.453756945425D-09-2.580419942357D+00
   -2.656131982803D-06 1.134111080319D-03 6.040558218956D-06 5.153618396759D+03
    4.680000000000D+05-4.284083843231D-08 1.079808672811D+00 3.166496753693D-08
    9.706480049626D-01 2.666250000000D+02-8.104234764308D-01-8.061764376274D-09
   -1.525063525017D-10 1.000000000000D+00 1.814000000000D+03 0.000000000000D+00
    2.000000000000D+00 0.000000000000D+00-9.778887033463D-09 9.400000000000D+01
    4.608300000000D+05 4.000000000000D+00
31 14 10 17 10  0  0.0 3.304248675704D-04-4.547473508865D-13 0.000000000000D+00
    6.900000000000D+01 3.087500000000D+01 4.086241636937D-09-1.807087754653D+00
    1.547858119011D-06 8.116451790556D-03 9.624287486076D-06 5.153652410507D+03
    4.680000000000D+05-1.825392246246D-07-1.035500124554D+00-3.352761268616D-08
    9.770898740238D-01 2.076875000000D+02-6.279899379588D-01-7.858898783251D-09
   -1.464346710204D-11 1.000000000000D+00 1.814000000000D+03 0.000000000000D+00
    2.000000000000D+00 0.000000000000D+00-1.303851604462D-08 6.900000000000D+01
    4.608300000000D+05 4.000000000000D+00
 2 14 10 17  7 59 44.0 5.246498622000D-04 2.273736754432D-12 0.000000000000D+00
    1.100000000000D+01-2.665625000000D+01 4.869131390295D-09-1.579909637875D+00
   -1.445412635803D-06 1.382300024852D-02 9.238719940186D-06 5.153694734573D+03
    4.607840000000D+05 2.998858690262D-07 2.047799023758D+00-2.048909664154D-07
    9.397501818071D-01 1.907500000000D+02-2.379314530903D+00-8.009619347081D-09
    1.071473202588D-11 1.000000000000D+00 1.814000000000D+03 0.000000000000D+00
    2.000000000000D+00 0.000000000000D+00-2.002343535423D-08 1.100000000000D+01
    4.599900000000D+05 4.000000000000D+00
